{"type": "FeatureCollection", "features": [ {"type": "Feature", "properties": {"norad_id": 39122, "name": "EUTELSAT 117 WEST A", "group": "eutelsat", "lat": 0.03196489146163677, "lon": 95.31743437627794, "alt_km": 35799.08242241738, "timestamp": "2025-12-08T08:59:00.443417+00:00", "meta": {"OBJECT_NAME": "EUTELSAT 117 WEST A", "OBJECT_ID": "2013-012A", "EPOCH": "2025-12-07T21:38:12.535008", "MEAN_MOTION": 1.00270287, "ECCENTRICITY": 0.00031233, "INCLINATION": 0.0134, "RA_OF_ASC_NODE": 336.6196, "ARG_OF_PERICENTER": 280.9528, "MEAN_ANOMALY": 27.0981, "EPHEMERIS_TYPE": 0, "CLASSIFICATION_TYPE": "U", "NORAD_CAT_ID": 39122, "ELEMENT_SET_NO": 999, "REV_AT_EPOCH": 4651, "BSTAR": 0, "MEAN_MOTION_DOT": -1e-07, "MEAN_MOTION_DDOT": 0}, "tle": {"line1": "1 39122U 13012A   25341.90153397 -.00000010  00000+0  00000+0 0  9996", "line2": "2 39122   0.0134 336.6196 0003123 280.9528  27.0981  1.00270287 46514"}}, "geometry": {"type": "Point", "coordinates": [95.31743437627794, 0.03196489146163677]}}, {"type": "Feature", "properties": {"norad_id": 39163, "name": "EUTELSAT 7B", "group": "eutelsat", "lat": -0.04990873798661203, "lon": -140.93701941373342, "alt_km": 35787.57731729658, "timestamp": "2025-12-08T08:59:00.443430+00:00", "meta": {"OBJECT_NAME": "EUTELSAT 7B", "OBJECT_ID": "2013-022A", "EPOCH": "2025-12-07T22:13:45.286176", "MEAN_MOTION": 1.00271007, "ECCENTRICITY": 0.00045249, "INCLINATION": 0.0697, "RA_OF_ASC_NODE": 11.3174, "ARG_OF_PERICENTER": 301.9339, "MEAN_ANOMALY": 104.1148, "EPHEMERIS_TYPE": 0, "CLASSIFICATION_TYPE": "U", "NORAD_CAT_ID": 39163, "ELEMENT_SET_NO": 999, "REV_AT_EPOCH": 4603, "BSTAR": 0, "MEAN_MOTION_DOT": 5.1e-07, "MEAN_MOTION_DDOT": 0}, "tle": {"line1": "1 39163U 13022A   25341.92621859  .00000051  00000+0  00000+0 0  9991", "line2": "2 39163   0.0697  11.3174 0004524 301.9339 104.1148  1.00271007 46036"}}, "geometry": {"type": "Point", "coordinates": [-140.93701941373342, -0.04990873798661203]}}, {"type": "Feature", "properties": {"norad_id": 39612, "name": "EXPRESS-AT1", "group": "eutelsat", "lat": -0.03680120732678842, "lon": -91.86994482403759, "alt_km": 35786.059507356775, "timestamp": "2025-12-08T08:59:00.443443+00:00", "meta": {"OBJECT_NAME": "EXPRESS-AT1", "OBJECT_ID": "2014-010A", "EPOCH": "2025-12-07T22:49:38.694720", "MEAN_MOTION": 1.00271829, "ECCENTRICITY": 3.636e-05, "INCLINATION": 0.0165, "RA_OF_ASC_NODE": 337.2246, "ARG_OF_PERICENTER": 199.9972, "MEAN_ANOMALY": 298.1515, "EPHEMERIS_TYPE": 0, "CLASSIFICATION_TYPE": "U", "NORAD_CAT_ID": 39612, "ELEMENT_SET_NO": 999, "REV_AT_EPOCH": 4290, "BSTAR": 0, "MEAN_MOTION_DOT": 0, "MEAN_MOTION_DDOT": 0}, "tle": {"line1": "1 39612U 14010A   25341.95114230  .00000000  00000+0  00000+0 0  9995", "line2": "2 39612   0.0165 337.2246 0000363 199.9972 298.1515  1.00271829 42906"}}, "geometry": {"type": "Point", "coordinates": [-91.86994482403759, -0.03680120732678842]}}, {"type": "Feature", "properties": {"norad_id": 39613, "name": "EXPRESS-AT2", "group": "eutelsat", "lat": 0.01859908767823733, "lon": -7.997070142377274, "alt_km": 35784.292066651105, "timestamp": "2025-12-08T08:59:00.443455+00:00", "meta": {"OBJECT_NAME": "EXPRESS-AT2", "OBJECT_ID": "2014-010B", "EPOCH": "2025-12-07T22:51:34.164864", "MEAN_MOTION": 1.00271698, "ECCENTRICITY": 0.00015074, "INCLINATION": 0.0161, "RA_OF_ASC_NODE": 301.9417, "ARG_OF_PERICENTER": 337.1811, "MEAN_ANOMALY": 280.5938, "EPHEMERIS_TYPE": 0, "CLASSIFICATION_TYPE": "U", "NORAD_CAT_ID": 39613, "ELEMENT_SET_NO": 999, "REV_AT_EPOCH": 4258, "BSTAR": 0, "MEAN_MOTION_DOT": -2.78e-06, "MEAN_MOTION_DDOT": 0}, "tle": {"line1": "1 39613U 14010B   25341.95247876 -.00000278  00000+0  00000+0 0  9997", "line2": "2 39613   0.0161 301.9417 0001507 337.1811 280.5938  1.00271698 42582"}}, "geometry": {"type": "Point", "coordinates": [-7.997070142377274, 0.01859908767823733]}}, {"type": "Feature", "properties": {"norad_id": 39773, "name": "EUTELSAT 3B", "group": "eutelsat", "lat": -0.039963060677452165, "lon": -144.7840996976814, "alt_km": 35767.14770292764, "timestamp": "2025-12-08T08:59:00.443467+00:00", "meta": {"OBJECT_NAME": "EUTELSAT 3B", "OBJECT_ID": "2014-030A", "EPOCH": "2025-12-07T22:12:37.894176", "MEAN_MOTION": 1.00272098, "ECCENTRICITY": 0.00046611, "INCLINATION": 0.0659, "RA_OF_ASC_NODE": 14.1636, "ARG_OF_PERICENTER": 218.029, "MEAN_ANOMALY": 181.0073, "EPHEMERIS_TYPE": 0, "CLASSIFICATION_TYPE": "U", "NORAD_CAT_ID": 39773, "ELEMENT_SET_NO": 999, "REV_AT_EPOCH": 4214, "BSTAR": 0, "MEAN_MOTION_DOT": 2.3e-07, "MEAN_MOTION_DDOT": 0}, "tle": {"line1": "1 39773U 14030A   25341.92543859  .00000023  00000+0  00000+0 0  9990", "line2": "2 39773   0.0659  14.1636 0004661 218.0290 181.0073  1.00272098 42141"}}, "geometry": {"type": "Point", "coordinates": [-144.7840996976814, -0.039963060677452165]}}, {"type": "Feature", "properties": {"norad_id": 40425, "name": "EUTELSAT 115 WEST B", "group": "eutelsat", "lat": -0.011317961769147341, "lon": 97.2359784045414, "alt_km": 35786.09750340697, "timestamp": "2025-12-08T08:59:00.443480+00:00", "meta": {"OBJECT_NAME": "EUTELSAT 115 WEST B", "OBJECT_ID": "2015-010B", "EPOCH": "2025-12-07T16:30:43.437600", "MEAN_MOTION": 1.00266052, "ECCENTRICITY": 3.733e-05, "INCLINATION": 0.0081, "RA_OF_ASC_NODE": 146.5843, "ARG_OF_PERICENTER": 315.8789, "MEAN_ANOMALY": 107.045, "EPHEMERIS_TYPE": 0, "CLASSIFICATION_TYPE": "U", "NORAD_CAT_ID": 40425, "ELEMENT_SET_NO": 999, "REV_AT_EPOCH": 3947, "BSTAR": 0, "MEAN_MOTION_DOT": -2.1e-07, "MEAN_MOTION_DDOT": 0}, "tle": {"line1": "1 40425U 15010B   25341.68800275 -.00000021  00000+0  00000+0 0  9995", "line2": "2 40425   0.0081 146.5843 0000373 315.8789 107.0450  1.00266052 39473"}}, "geometry": {"type": "Point", "coordinates": [97.2359784045414, -0.011317961769147341]}}, {"type": "Feature", "properties": {"norad_id": 40875, "name": "EUTELSAT 8 WEST B", "group": "eutelsat", "lat": -0.04344203136059492, "lon": -155.89647220684742, "alt_km": 35775.916294698756, "timestamp": "2025-12-08T08:59:00.443492+00:00", "meta": {"OBJECT_NAME": "EUTELSAT 8 WEST B", "OBJECT_ID": "2015-039B", "EPOCH": "2025-12-07T22:09:23.204736", "MEAN_MOTION": 1.00271409, "ECCENTRICITY": 0.00041404, "INCLINATION": 0.0645, "RA_OF_ASC_NODE": 357.3754, "ARG_OF_PERICENTER": 260.8721, "MEAN_ANOMALY": 143.0508, "EPHEMERIS_TYPE": 0, "CLASSIFICATION_TYPE": "U", "NORAD_CAT_ID": 40875, "ELEMENT_SET_NO": 999, "REV_AT_EPOCH": 3773, "BSTAR": 0, "MEAN_MOTION_DOT": -6.2e-07, "MEAN_MOTION_DDOT": 0}, "tle": {"line1": "1 40875U 15039B   25341.92318524 -.00000062  00000+0  00000+0 0  9998", "line2": "2 40875   0.0645 357.3754 0004140 260.8721 143.0508  1.00271409 37735"}}, "geometry": {"type": "Point", "coordinates": [-155.89647220684742, -0.04344203136059492]}}, {"type": "Feature", "properties": {"norad_id": 41310, "name": "EUTELSAT 9B", "group": "eutelsat", "lat": 0.023562594838524097, "lon": -138.90735760646086, "alt_km": 35771.332092842524, "timestamp": "2025-12-08T08:59:00.443503+00:00", "meta": {"OBJECT_NAME": "EUTELSAT 9B", "OBJECT_ID": "2016-005A", "EPOCH": "2025-12-07T20:31:33.917088", "MEAN_MOTION": 1.00272959, "ECCENTRICITY": 0.0005018, "INCLINATION": 0.0774, "RA_OF_ASC_NODE": 76.0031, "ARG_OF_PERICENTER": 192.6175, "MEAN_ANOMALY": 125.1451, "EPHEMERIS_TYPE": 0, "CLASSIFICATION_TYPE": "U", "NORAD_CAT_ID": 41310, "ELEMENT_SET_NO": 999, "REV_AT_EPOCH": 3619, "BSTAR": 0, "MEAN_MOTION_DOT": 6.5e-07, "MEAN_MOTION_DDOT": 0}, "tle": {"line1": "1 41310U 16005A   25341.85525367  .00000065  00000+0  00000+0 0  9996", "line2": "2 41310   0.0774  76.0031 0005018 192.6175 125.1451  1.00272959 36194"}}, "geometry": {"type": "Point", "coordinates": [-138.90735760646086, 0.023562594838524097]}}, {"type": "Feature", "properties": {"norad_id": 41382, "name": "EUTELSAT 65 WEST A", "group": "eutelsat", "lat": 0.03365105271156916, "lon": 146.87863780361732, "alt_km": 35792.83765518137, "timestamp": "2025-12-08T08:59:00.443515+00:00", "meta": {"OBJECT_NAME": "EUTELSAT 65 WEST A", "OBJECT_ID": "2016-014A", "EPOCH": "2025-12-07T21:53:09.760128", "MEAN_MOTION": 1.00269243, "ECCENTRICITY": 0.00028633, "INCLINATION": 0.0495, "RA_OF_ASC_NODE": 359.5474, "ARG_OF_PERICENTER": 267.0396, "MEAN_ANOMALY": 73.413, "EPHEMERIS_TYPE": 0, "CLASSIFICATION_TYPE": "U", "NORAD_CAT_ID": 41382, "ELEMENT_SET_NO": 999, "REV_AT_EPOCH": 3561, "BSTAR": 0, "MEAN_MOTION_DOT": -2.73e-06, "MEAN_MOTION_DDOT": 0}, "tle": {"line1": "1 41382U 16014A   25341.91191852 -.00000273  00000+0  00000+0 0  9992", "line2": "2 41382   0.0495 359.5474 0002863 267.0396  73.4130  1.00269243 35617"}}, "geometry": {"type": "Point", "coordinates": [146.87863780361732, 0.03365105271156916]}}, {"type": "Feature", "properties": {"norad_id": 41589, "name": "EUTELSAT 117 WEST B", "group": "eutelsat", "lat": -0.01541401774674183, "lon": 95.10644708007716, "alt_km": 35786.10568924481, "timestamp": "2025-12-08T08:59:00.443527+00:00", "meta": {"OBJECT_NAME": "EUTELSAT 117 WEST B", "OBJECT_ID": "2016-038B", "EPOCH": "2025-12-07T16:30:05.997888", "MEAN_MOTION": 1.00264607, "ECCENTRICITY": 5.814e-05, "INCLINATION": 0.0035, "RA_OF_ASC_NODE": 146.5968, "ARG_OF_PERICENTER": 345.3614, "MEAN_ANOMALY": 75.2712, "EPHEMERIS_TYPE": 0, "CLASSIFICATION_TYPE": "U", "NORAD_CAT_ID": 41589, "ELEMENT_SET_NO": 999, "REV_AT_EPOCH": 3474, "BSTAR": 0, "MEAN_MOTION_DOT": -7e-08, "MEAN_MOTION_DDOT": 0}, "tle": {"line1": "1 41589U 16038B   25341.68756942 -.00000007  00000+0  00000+0 0  9993", "line2": "2 41589   0.0035 146.5968 0000581 345.3614  75.2712  1.00264607 34744"}}, "geometry": {"type": "Point", "coordinates": [95.10644708007716, -0.01541401774674183]}}]}